NORAD_CAT_ID,OBJECT_NAME,OBJECT_TYPE,EPOCH,MEAN_MOTION,ECCENTRICITY,INCLINATION,RA_OF_ASC_NODE,ARG_OF_PERICENTER,MEAN_ANOMALY,BSTAR,MEAN_MOTION_DOT,MEAN_MOTION_DDOT,TLE_LINE0,TLE_LINE1,TLE_LINE2,SEMIMAJOR_AXIS,PERIOD,APOGEE,PERIGEE,DECAYED
55763.0,STARLINK-5593,PAYLOAD,2024-07-16 12:18:18,14.98332052,0.0003081,70.0016,320.0777,270.3201,89.7605,2.086e-05,1.56e-06,0.0,0 STARLINK-5593,1 55763U 23028Y   24198.51271320  .00000156  00000-0  20860-4 0  9998,2 55763  70.0016 320.0777 0003081 270.3201  89.7605 14.98332052 75997,6950.187,96.107,574.193,569.91,0.0
55763.0,STARLINK-5593,PAYLOAD,2024-07-16 17:06:42,14.98337647,0.0003046,70.0018,319.5738,267.9742,92.1068,0.00010565,1.168e-05,0.0,0 STARLINK-5593,1 55763U 23028Y   24198.71298719  .00001168  00000-0  10565-3 0  9995,2 55763  70.0018 319.5738 0003046 267.9742  92.1068 14.98337647 76023,6950.169,96.107,574.151,569.917,0.0
55763.0,STARLINK-5593,PAYLOAD,2024-07-17 12:20:20,14.98324436,0.0003082,69.9997,317.5505,271.5136,88.567,-7.5147e-05,-9.89e-06,0.0,0 STARLINK-5593,1 55763U 23028Y   24199.51412164 -.00000989  00000-0 -75147-4 0  9996,2 55763  69.9997 317.5505 0003082 271.5136  88.5670 14.98324436 76147,6950.21,96.107,574.217,569.933,0.0
55763.0,STARLINK-5593,PAYLOAD,2024-07-17 13:56:28,14.98322211,0.0003021,70.0013,317.385,268.3257,91.7556,-6.8783e-05,-9.13e-06,0.0,0 STARLINK-5593,1 55763U 23028Y   24199.58088321 -.00000913  00000-0 -68783-4 0  9992,2 55763  70.0013 317.3850 0003021 268.3257  91.7556 14.98322211 76150,6950.217,96.107,574.182,569.982,0.0
55763.0,STARLINK-5593,PAYLOAD,2024-07-17 17:08:44,14.9832383,0.0002935,70.0014,317.0483,268.514,91.5682,-4.987e-05,-6.88e-06,0.0,0 STARLINK-5593,1 55763U 23028Y   24199.71440235 -.00000688  00000-0 -49870-4 0  9998,2 55763  70.0014 317.0483 0002935 268.5140  91.5682 14.98323830 76174,6950.212,96.107,574.117,570.037,0.0
55763.0,STARLINK-5593,PAYLOAD,2024-07-18 12:22:20,14.98331966,0.000304,70.0012,315.028,269.7276,90.3535,5.8905e-05,6.1e-06,0.0,0 STARLINK-5593,1 55763U 23028Y   24200.51551529  .00000610  00000-0  58905-4 0  9990,2 55763  70.0012 315.0280 0003040 269.7276  90.3535 14.98331966 76292,6950.187,96.107,574.165,569.939,0.0
55763.0,STARLINK-5593,PAYLOAD,2024-07-18 13:58:28,14.98338776,0.0002883,70.0012,314.8596,257.4875,102.5962,6.6937e-05,7.06e-06,0.0,0 STARLINK-5593,1 55763U 23028Y   24200.58227020  .00000706  00000-0  66937-4 0  9993,2 55763  70.0012 314.8596 0002883 257.4875 102.5962 14.98338776 76300,6950.166,96.106,574.034,570.027,0.0
55763.0,STARLINK-5593,PAYLOAD,2024-07-18 17:10:44,14.98341892,0.0003002,70.0011,314.5232,267.6937,92.3878,8.8989e-05,9.69e-06,0.0,0 STARLINK-5593,1 55763U 23028Y   24200.71578769  .00000969  00000-0  88989-4 0  9999,2 55763  70.0011 314.5232 0003002 267.6937  92.3878 14.98341892 76326,6950.156,96.106,574.108,569.935,0.0
55763.0,STARLINK-5593,PAYLOAD,2024-07-19 12:24:22,14.98321166,0.0002612,70.0018,312.504,263.1827,96.9035,9.2404e-05,1.01e-05,0.0,0 STARLINK-5593,1 55763U 23028Y   24201.51692139  .00001010  00000-0  92404-4 0  9991,2 55763  70.0018 312.5040 0002612 263.1827  96.9035 14.98321166 76443,6950.22,96.108,573.901,570.27,0.0
55763.0,STARLINK-5593,PAYLOAD,2024-07-19 14:00:29,14.98322821,0.0003065,70.0009,312.3348,271.1134,88.9674,9.8986e-05,1.088e-05,0.0,0 STARLINK-5593,1 55763U 23028Y   24201.58368051  .00001088  00000-0  98986-4 0  9997,2 55763  70.0009 312.3348 0003065 271.1134  88.9674 14.98322821 76455,6950.215,96.107,574.21,569.95,0.0
55763.0,STARLINK-5593,PAYLOAD,2024-07-19 17:12:45,14.98325768,0.000304,70.001,311.9984,271.2643,88.8168,0.00013069,1.467e-05,0.0,0 STARLINK-5593,1 55763U 23028Y   24201.71719859  .00001467  00000-0  13069-3 0  9997,2 55763  70.0010 311.9984 0003040 271.2643  88.8168 14.98325768 76479,6950.206,96.107,574.184,569.958,0.0
55763.0,STARLINK-5593,PAYLOAD,2024-07-20 12:26:22,14.98336399,0.0003078,70.0012,309.9797,271.5314,88.5492,1.8024e-05,1.22e-06,0.0,0 STARLINK-5593,1 55763U 23028Y   24202.51831537  .00000122  00000-0  18024-4 0  9998,2 55763  70.0012 309.9797 0003078 271.5314  88.5492 14.98336399 76591,6950.173,96.107,574.177,569.899,0.0
55763.0,STARLINK-5593,PAYLOAD,2024-07-20 14:02:30,14.98338884,0.0003065,70.0011,309.8113,271.7847,88.2961,3.6496e-05,3.43e-06,0.0,0 STARLINK-5593,1 55763U 23028Y   24202.58507304  .00000343  00000-0  36496-4 0  9995,2 55763  70.0011 309.8113 0003065 271.7847  88.2961 14.98338884 76601,6950.165,96.106,574.161,569.9,0.0
55763.0,STARLINK-5593,PAYLOAD,2024-07-20 17:14:45,14.98343908,0.0003029,70.0012,309.4739,270.7977,89.2835,9.8983e-05,1.089e-05,0.0,0 STARLINK-5593,1 55763U 23028Y   24202.71858747  .00001089  00000-0  98983-4 0  9997,2 55763  70.0012 309.4739 0003029 270.7977  89.2835 14.98343908 76621,6950.15,96.106,574.12,569.91,0.0
55763.0,STARLINK-5593,PAYLOAD,2024-07-21 12:28:23,14.98326903,0.0002988,70.0019,307.4552,271.5117,88.57,8.0594e-05,8.69e-06,0.0,0 STARLINK-5593,1 55763U 23028Y   24203.51971698  .00000869  00000-0  80594-4 0  9991,2 55763  70.0019 307.4552 0002988 271.5117  88.5700 14.98326903 76749,6950.202,96.107,574.144,569.991,0.0
55763.0,STARLINK-5593,PAYLOAD,2024-07-21 14:04:31,14.98327854,0.0002874,70.0021,307.2863,265.0493,95.0338,9.744e-05,1.07e-05,0.0,0 STARLINK-5593,1 55763U 23028Y   24203.58647567  .00001070  00000-0  97440-4 0  9996,2 55763  70.0021 307.2863 0002874 265.0493  95.0338 14.98327854 76751,6950.2,96.107,574.062,570.067,0.0
55763.0,STARLINK-5593,PAYLOAD,2024-07-21 17:16:47,14.98330563,0.0002896,70.0019,306.9496,263.2354,96.8476,0.00011826,1.318e-05,0.0,0 STARLINK-5593,1 55763U 23028Y   24203.71999319  .00001318  00000-0  11826-3 0  9994,2 55763  70.0019 306.9496 0002896 263.2354  96.8476 14.98330563 76771,6950.191,96.107,574.069,570.043,0.0
55763.0,STARLINK-5593,PAYLOAD,2024-07-22 09:18:08,14.98330027,0.0002714,70.002,305.2667,260.1827,99.9025,-7.4997e-06,-1.82e-06,0.0,0 STARLINK-5593,1 55763U 23028Y   24204.38759621 -.00000182  00000-0 -74997-5 0  9998,2 55763  70.0020 305.2667 0002714 260.1827  99.9025 14.98330027 76875,6950.193,96.107,573.944,570.172,0.0
55763.0,STARLINK-5593,PAYLOAD,2024-07-23 12:32:24,14.98331507,0.0002867,70.0018,302.4058,265.5473,94.5358,9.6997e-05,1.065e-05,0.0,0 STARLINK-5593,1 55763U 23028Y   24205.52251091  .00001065  00000-0  96997-4 0  9995,2 55763  70.0018 302.4058 0002867 265.5473  94.5358 14.98331507 77044,6950.188,96.107,574.046,570.061,0.0
55763.0,STARLINK-5593,PAYLOAD,2024-07-24 09:22:10,14.98327456,0.0002793,69.999,300.213,255.8905,104.1944,-2.1564e-05,-3.5e-06,0.0,0 STARLINK-5593,1 55763U 23028Y   24206.39039595 -.00000350  00000-0 -21564-4 0  9990,2 55763  69.9990 300.2130 0002793 255.8905 104.1944 14.98327456 77178,6950.201,96.107,574.007,570.125,0.0
55763.0,STARLINK-5593,PAYLOAD,2024-07-25 06:11:54,14.98329534,0.0002602,69.9989,298.0242,253.6885,106.3988,2.0278e-05,1.49e-06,0.0,0 STARLINK-5593,1 55763U 23028Y   24207.25827394  .00000149  00000-0  20278-4 0  9993,2 55763  69.9989 298.0242 0002602 253.6885 106.3988 14.98329534 77302,6950.194,96.107,573.868,570.251,0.0
55763.0,STARLINK-5593,PAYLOAD,2024-07-25 09:24:10,14.98331659,0.0002687,69.9991,297.6869,250.8257,109.2611,5.1438e-05,5.21e-06,0.0,0 STARLINK-5593,1 55763U 23028Y   24207.39179158  .00000521  00000-0  51438-4 0  9992,2 55763  69.9991 297.6869 0002687 250.8257 109.2611 14.98331659 77328,6950.188,96.107,573.92,570.185,0.0
55763.0,STARLINK-5593,PAYLOAD,2024-07-26 09:26:11,14.98330621,0.000304,69.9995,295.1641,266.4439,93.6373,0.00010221,1.127e-05,0.0,0 STARLINK-5593,1 55763U 23028Y   24208.39319059  .00001127  00000-0  10221-3 0  9996,2 55763  69.9995 295.1641 0003040 266.4439  93.6373 14.98330621 77477,6950.191,96.107,574.169,569.943,0.0
55763.0,STARLINK-5593,PAYLOAD,2024-07-26 12:38:27,14.98332114,0.0003201,69.9999,294.8292,271.9282,88.1511,0.0001228,1.373e-05,0.0,0 STARLINK-5593,1 55763U 23028Y   24208.52670937  .00001373  00000-0  12280-3 0  9996,2 55763  69.9999 294.8292 0003201 271.9282  88.1511 14.98332114 77499,6950.186,96.107,574.276,569.827,0.0
55763.0,STARLINK-5593,PAYLOAD,2024-07-27 06:15:57,14.98285678,0.0003115,70.0,292.9775,267.1851,92.8952,0.00080727,9.541e-05,0.0,0 STARLINK-5593,1 55763U 23028Y   24209.26108074  .00009541  00000-0  80727-3 0  9992,2 55763  70.0000 292.9775 0003115 267.1851  92.8952 14.98285678 77609,6950.33,96.11,574.36,570.03,0.0
55763.0,STARLINK-5593,PAYLOAD,2024-07-27 09:28:12,14.98331772,0.0003129,69.9999,292.6407,271.8564,88.2237,-1.2386e-05,-2.41e-06,0.0,0 STARLINK-5593,1 55763U 23028Y   24209.39459242 -.00000241  00000-0 -12386-4 0  9999,2 55763  69.9999 292.6407 0003129 271.8564  88.2237 14.98331772 77624,6950.187,96.107,574.227,569.878,0.0
55763.0,STARLINK-5593,PAYLOAD,2024-07-27 15:52:45,14.98331117,0.0003125,69.9999,291.9674,270.9951,89.085,-3.3784e-05,-4.96e-06,0.0,0 STARLINK-5593,1 55763U 23028Y   24209.66163317 -.00000496  00000-0 -33784-4 0  9991,2 55763  69.9999 291.9674 0003125 270.9951  89.0850 14.98331117 77665,6950.189,96.107,574.226,569.883,0.0
55763.0,STARLINK-5593,PAYLOAD,2024-07-28 12:42:29,14.98334202,0.0003242,69.9995,289.7789,272.2325,87.8463,2.3254e-05,1.84e-06,0.0,0 STARLINK-5593,1 55763U 23028Y   24210.52950841  .00000184  00000-0  23254-4 0  9997,2 55763  69.9995 289.7789 0003242 272.2325  87.8463 14.98334202 77791,6950.18,96.107,574.298,569.792,0.0
55763.0,STARLINK-5593,PAYLOAD,2024-07-28 22:19:18,14.98330491,0.0003084,70.0002,288.7694,273.9482,86.1324,2.3036e-05,1.82e-06,0.0,0 STARLINK-5593,1 55763U 23028Y   24210.93006978  .00000182  00000-0  23036-4 0  9991,2 55763  70.0002 288.7694 0003084 273.9482  86.1324 14.98330491 77854,6950.191,96.107,574.2,569.913,0.0
55763.0,STARLINK-5593,PAYLOAD,2024-07-29 11:08:22,14.98324228,0.0002954,70.0005,287.4243,266.462,93.6202,3.7815e-06,-4.8e-07,0.0,0 STARLINK-5593,1 55763U 23028Y   24211.46415494 -.00000048  00000-0  37815-5 0  9990,2 55763  70.0005 287.4243 0002954 266.4620  93.6202 14.98324228 77937,6950.211,96.107,574.129,570.023,0.0
